start=new Date('2022-03-10T00:00:00.000Z').valueOf();
sats=[{"LAUNCH_DATE":"2021-02-04","APOAPSIS":"548.598","OBJECT_TYPE":"PAYLOAD","PERIOD":"95.593","DECAY_DATE":null,"OBJECT_NAME":"STARLINK-1962","SEMIMAJOR_AXIS":"6925.402","MEAN_ANOMALY":"314.1990","EPHEMERIS_TYPE":"0","INCLINATION":"53.0540","CLASSIFICATION_TYPE":"U","NORAD_CAT_ID":"47563","ARG_OF_PERICENTER":"45.9157","TIME_SYSTEM":"UTC","MEAN_MOTION_DDOT":"0.0000000000000","COUNTRY_CODE":"US","EPOCH":"2022-03-09T19:17:15.646848","REF_FRAME":"TEME","PERIAPSIS":"545.937","REV_AT_EPOCH":"6060","BSTAR":"0.00013995000000","ELEMENT_SET_NO":"999","ECCENTRICITY":"0.00019210","TLE_LINE1":"1 47563U 21009R   22068.80365332  .00001803  00000-0  13995-3 0  9997","RA_OF_ASC_NODE":"99.7969","FILE":"3352875","RCS_SIZE":"LARGE","OBJECT_ID":"2021-009R","CENTER_NAME":"EARTH","GP_ID":"198359173","MEAN_ELEMENT_THEORY":"SGP4","TLE_LINE2":"2 47563  53.0540  99.7969 0001921  45.9157 314.1990 15.06382480 60603","MEAN_MOTION":"15.06382480","MEAN_MOTION_DOT":"0.00001803","SITE":"AFETR"},{"COUNTRY_CODE":"US","EPOCH":"2022-03-09T12:56:25.129536","REF_FRAME":"TEME","TIME_SYSTEM":"UTC","MEAN_MOTION_DDOT":"0.0000000000000","REV_AT_EPOCH":"6130","BSTAR":"0.00004323700000","PERIAPSIS":"546.029","CLASSIFICATION_TYPE":"U","ARG_OF_PERICENTER":"47.5716","NORAD_CAT_ID":"47564","SEMIMAJOR_AXIS":"6925.383","MEAN_ANOMALY":"312.5421","INCLINATION":"53.0558","EPHEMERIS_TYPE":"0","OBJECT_TYPE":"PAYLOAD","APOAPSIS":"548.467","LAUNCH_DATE":"2021-02-04","DECAY_DATE":null,"PERIOD":"95.593","OBJECT_NAME":"STARLINK-1963","MEAN_MOTION_DOT":"0.00000362","SITE":"AFETR","TLE_LINE2":"2 47564  53.0558  90.9906 0001760  47.5716 312.5421 15.06388872 61307","MEAN_MOTION":"15.06388872","RCS_SIZE":"LARGE","OBJECT_ID":"2021-009S","MEAN_ELEMENT_THEORY":"SGP4","GP_ID":"198335677","CENTER_NAME":"EARTH","ELEMENT_SET_NO":"999","FILE":"3352734","ECCENTRICITY":"0.00017600","TLE_LINE1":"1 47564U 21009S   22068.53917974  .00000362  00000-0  43237-4 0  9995","RA_OF_ASC_NODE":"90.9906"},{"REV_AT_EPOCH":"6070","BSTAR":"0.00002601300000","PERIAPSIS":"545.976","EPOCH":"2022-03-09T12:51:06.348960","COUNTRY_CODE":"US","REF_FRAME":"TEME","TIME_SYSTEM":"UTC","MEAN_MOTION_DDOT":"0.0000000000000","ARG_OF_PERICENTER":"51.2072","NORAD_CAT_ID":"47565","CLASSIFICATION_TYPE":"U","MEAN_ANOMALY":"308.9081","EPHEMERIS_TYPE":"0","INCLINATION":"53.0555","SEMIMAJOR_AXIS":"6925.386","PERIOD":"95.593","DECAY_DATE":null,"OBJECT_NAME":"STARLINK-1964","APOAPSIS":"548.525","OBJECT_TYPE":"PAYLOAD","LAUNCH_DATE":"2021-02-04","SITE":"AFETR","MEAN_MOTION_DOT":"0.00000106","MEAN_MOTION":"15.06387889","TLE_LINE2":"2 47565  53.0555  91.0044 0001840  51.2072 308.9081 15.06387889 60707","OBJECT_ID":"2021-009T","GP_ID":"198325602","MEAN_ELEMENT_THEORY":"SGP4","CENTER_NAME":"EARTH","RCS_SIZE":"LARGE","FILE":"3352425","ECCENTRICITY":"0.00018400","TLE_LINE1":"1 47565U 21009T   22068.53549015  .00000106  00000-0  26013-4 0  9992","RA_OF_ASC_NODE":"91.0044","ELEMENT_SET_NO":"999"},{"ELEMENT_SET_NO":"999","TLE_LINE1":"1 47566U 21009U   22068.72808358  .00001880  00000-0  14508-3 0  9997","ECCENTRICITY":"0.00017530","RA_OF_ASC_NODE":"80.1315","FILE":"3352875","RCS_SIZE":"LARGE","OBJECT_ID":"2021-009U","GP_ID":"198360926","MEAN_ELEMENT_THEORY":"SGP4","CENTER_NAME":"EARTH","TLE_LINE2":"2 47566  53.0556  80.1315 0001753  49.8903 310.2240 15.06392049 60873","MEAN_MOTION":"15.06392049","MEAN_MOTION_DOT":"0.00001880","SITE":"AFETR","LAUNCH_DATE":"2021-02-04","OBJECT_TYPE":"PAYLOAD","APOAPSIS":"548.452","PERIOD":"95.593","DECAY_DATE":null,"OBJECT_NAME":"STARLINK-1965","SEMIMAJOR_AXIS":"6925.373","MEAN_ANOMALY":"310.2240","EPHEMERIS_TYPE":"0","INCLINATION":"53.0556","CLASSIFICATION_TYPE":"U","NORAD_CAT_ID":"47566","ARG_OF_PERICENTER":"49.8903","TIME_SYSTEM":"UTC","MEAN_MOTION_DDOT":"0.0000000000000","REF_FRAME":"TEME","COUNTRY_CODE":"US","EPOCH":"2022-03-09T17:28:26.421312","PERIAPSIS":"546.024","REV_AT_EPOCH":"6087","BSTAR":"0.00014508000000"},{"MEAN_MOTION_DOT":"0.00001667","SITE":"AFETR","TLE_LINE2":"2 47567  53.0555 119.6799 0001842  56.9494 303.1671 15.06384090 60326","MEAN_MOTION":"15.06384090","RCS_SIZE":"LARGE","OBJECT_ID":"2021-009V","GP_ID":"198359674","MEAN_ELEMENT_THEORY":"SGP4","CENTER_NAME":"EARTH","ELEMENT_SET_NO":"999","ECCENTRICITY":"0.00018420","TLE_LINE1":"1 47567U 21009V   22068.83129130  .00001667  00000-0  13086-3 0  9997","RA_OF_ASC_NODE":"119.6799","FILE":"3352875","TIME_SYSTEM":"UTC","MEAN_MOTION_DDOT":"0.0000000000000","EPOCH":"2022-03-09T19:57:03.568320","COUNTRY_CODE":"US","REF_FRAME":"TEME","PERIAPSIS":"545.987","REV_AT_EPOCH":"6032","BSTAR":"0.00013086000000","CLASSIFICATION_TYPE":"U","NORAD_CAT_ID":"47567","ARG_OF_PERICENTER":"56.9494","SEMIMAJOR_AXIS":"6925.397","MEAN_ANOMALY":"303.1671","INCLINATION":"53.0555","EPHEMERIS_TYPE":"0","LAUNCH_DATE":"2021-02-04","OBJECT_TYPE":"PAYLOAD","APOAPSIS":"548.538","PERIOD":"95.593","DECAY_DATE":null,"OBJECT_NAME":"STARLINK-1966"},{"TLE_LINE2":"2 47568  53.0541 119.5517 0001643  54.6396 305.4746 15.06382935 60339","MEAN_MOTION":"15.06382935","MEAN_MOTION_DOT":"0.00001652","SITE":"AFETR","ELEMENT_SET_NO":"999","FILE":"3352875","RA_OF_ASC_NODE":"119.5517","TLE_LINE1":"1 47568U 21009W   22068.85709719  .00001652  00000-0  12984-3 0  9997","ECCENTRICITY":"0.00016430","RCS_SIZE":"LARGE","GP_ID":"198359924","MEAN_ELEMENT_THEORY":"SGP4","CENTER_NAME":"EARTH","OBJECT_ID":"2021-009W","CLASSIFICATION_TYPE":"U","ARG_OF_PERICENTER":"54.6396","NORAD_CAT_ID":"47568","COUNTRY_CODE":"US","REF_FRAME":"TEME","EPOCH":"2022-03-09T20:34:13.197216","MEAN_MOTION_DDOT":"0.0000000000000","TIME_SYSTEM":"UTC","BSTAR":"0.00012984000000","REV_AT_EPOCH":"6033","PERIAPSIS":"546.128","APOAPSIS":"548.404","OBJECT_TYPE":"PAYLOAD","LAUNCH_DATE":"2021-02-04","OBJECT_NAME":"STARLINK-1967","DECAY_DATE":null,"PERIOD":"95.593","SEMIMAJOR_AXIS":"6925.401","INCLINATION":"53.0541","EPHEMERIS_TYPE":"0","MEAN_ANOMALY":"305.4746"},{"SITE":"AFETR","MEAN_MOTION_DOT":"0.00055852","MEAN_MOTION":"15.42783077","TLE_LINE2":"2 47569  53.0595  64.3057 0003823  20.4101 339.7056 15.42783077 61104","OBJECT_ID":"2021-009X","MEAN_ELEMENT_THEORY":"SGP4","GP_ID":"198360175","CENTER_NAME":"EARTH","RCS_SIZE":"LARGE","FILE":"3352875","TLE_LINE1":"1 47569U 21009X   22068.68364226  .00055852  00000-0  12568-2 0  9997","ECCENTRICITY":"0.00038230","RA_OF_ASC_NODE":"64.3057","ELEMENT_SET_NO":"999","REV_AT_EPOCH":"6110","BSTAR":"0.00125680000000","PERIAPSIS":"435.296","COUNTRY_CODE":"US","REF_FRAME":"TEME","EPOCH":"2022-03-09T16:24:26.691264","TIME_SYSTEM":"UTC","MEAN_MOTION_DDOT":"0.0000000000000","ARG_OF_PERICENTER":"20.4101","NORAD_CAT_ID":"47569","CLASSIFICATION_TYPE":"U","MEAN_ANOMALY":"339.7056","INCLINATION":"53.0595","EPHEMERIS_TYPE":"0","SEMIMAJOR_AXIS":"6816.037","DECAY_DATE":null,"OBJECT_NAME":"STARLINK-1968","PERIOD":"93.338","APOAPSIS":"440.508","OBJECT_TYPE":"PAYLOAD","LAUNCH_DATE":"2021-02-04"},{"OBJECT_ID":"2021-009Y","CENTER_NAME":"EARTH","GP_ID":"198360426","MEAN_ELEMENT_THEORY":"SGP4","RCS_SIZE":"LARGE","TLE_LINE1":"1 47570U 21009Y   22068.71702705  .00000290  00000-0  38407-4 0  9999","ECCENTRICITY":"0.00016670","RA_OF_ASC_NODE":"80.1754","FILE":"3352875","ELEMENT_SET_NO":"999","SITE":"AFETR","MEAN_MOTION_DOT":"0.00000290","MEAN_MOTION":"15.06390084","TLE_LINE2":"2 47570  53.0542  80.1754 0001667  53.7406 306.3737 15.06390084 60870","MEAN_ANOMALY":"306.3737","EPHEMERIS_TYPE":"0","INCLINATION":"53.0542","SEMIMAJOR_AXIS":"6925.379","PERIOD":"95.593","DECAY_DATE":null,"OBJECT_NAME":"STARLINK-1969","LAUNCH_DATE":"2021-02-04","OBJECT_TYPE":"PAYLOAD","APOAPSIS":"548.398","PERIAPSIS":"546.089","REV_AT_EPOCH":"6087","BSTAR":"0.00003840700000","TIME_SYSTEM":"UTC","MEAN_MOTION_DDOT":"0.0000000000000","COUNTRY_CODE":"US","EPOCH":"2022-03-09T17:12:31.137120","REF_FRAME":"TEME","NORAD_CAT_ID":"47570","ARG_OF_PERICENTER":"53.7406","CLASSIFICATION_TYPE":"U"},{"LAUNCH_DATE":"2021-02-04","APOAPSIS":"548.251","OBJECT_TYPE":"PAYLOAD","DECAY_DATE":null,"OBJECT_NAME":"STARLINK-1970","PERIOD":"95.592","SEMIMAJOR_AXIS":"6925.349","EPHEMERIS_TYPE":"0","INCLINATION":"53.0530","MEAN_ANOMALY":"306.0987","CLASSIFICATION_TYPE":"U","NORAD_CAT_ID":"47571","ARG_OF_PERICENTER":"54.0141","MEAN_MOTION_DDOT":"0.0000000000000","TIME_SYSTEM":"UTC","COUNTRY_CODE":"US","REF_FRAME":"TEME","EPOCH":"2022-03-09T20:38:11.010624","PERIAPSIS":"546.177","BSTAR":"0.00044793000000","REV_AT_EPOCH":"6075","ELEMENT_SET_NO":"999","RA_OF_ASC_NODE":"89.5424","ECCENTRICITY":"0.00014980","TLE_LINE1":"1 47571U 21009Z   22068.85984966  .00006397  00000-0  44793-3 0  9994","FILE":"3352875","RCS_SIZE":"LARGE","MEAN_ELEMENT_THEORY":"SGP4","GP_ID":"198359174","CENTER_NAME":"EARTH","OBJECT_ID":"2021-009Z","TLE_LINE2":"2 47571  53.0530  89.5424 0001498  54.0141 306.0987 15.06399863 60752","MEAN_MOTION":"15.06399863","MEAN_MOTION_DOT":"0.00006397","SITE":"AFETR"},{"APOAPSIS":"548.436","OBJECT_TYPE":"PAYLOAD","LAUNCH_DATE":"2021-02-04","DECAY_DATE":null,"OBJECT_NAME":"STARLINK-1971","PERIOD":"95.592","SEMIMAJOR_AXIS":"6925.364","INCLINATION":"53.0542","EPHEMERIS_TYPE":"0","MEAN_ANOMALY":"309.5285","CLASSIFICATION_TYPE":"U","ARG_OF_PERICENTER":"50.5858","NORAD_CAT_ID":"47572","COUNTRY_CODE":"US","EPOCH":"2022-03-09T18:36:07.202304","REF_FRAME":"TEME","MEAN_MOTION_DDOT":"0.0000000000000","TIME_SYSTEM":"UTC","BSTAR":"0.00027306000000","REV_AT_EPOCH":"6074","PERIAPSIS":"546.022","ELEMENT_SET_NO":"999","FILE":"3352875","RA_OF_ASC_NODE":"89.9259","ECCENTRICITY":"0.00017430","TLE_LINE1":"1 47572U 21009AA  22068.77508336  .00003787  00000-0  27306-3 0  9990","RCS_SIZE":"LARGE","GP_ID":"198359424","CENTER_NAME":"EARTH","MEAN_ELEMENT_THEORY":"SGP4","OBJECT_ID":"2021-009AA","TLE_LINE2":"2 47572  53.0542  89.9259 0001743  50.5858 309.5285 15.06395032 60747","MEAN_MOTION":"15.06395032","MEAN_MOTION_DOT":"0.00003787","SITE":"AFETR"}];
